EUTELSAT 133 WEST A     
1 26719U 01011A   20218.56432616  .00000062  00000-0  00000-0 0  9992
2 26719   2.0762  88.5614 0005205  44.2049 252.0904  1.00270548 71064
INTELSAT 10 (IS-10)     
1 26766U 01019A   20218.19493845  .00000106  00000-0  00000-0 0  9991
2 26766   3.9984  78.6622 0002218  65.7418 287.4756  1.00274179 24159
INTELSAT 901 (IS-901)   
1 26824U 01024A   20218.36213251 -.00000218  00000-0  00000-0 0  9997
2 26824   0.0259 279.2233 0001254 211.3402 286.6822  1.00269790  1518
ASTRA 2C                
1 26853U 01025A   20218.24291059  .00000119  00000-0  00000+0 0  9997
2 26853   2.9398  85.1554 0002980  44.2814 295.9248  1.00271248 70109
USA 159 (DSP 21)        
1 26880U 01033A   20218.35777073 -.00000310  00000-0  00000+0 0  9997
2 26880  10.8111  30.0380 0000457 355.0262   9.0728  1.00271880 10140
INTELSAT 902 (IS-902)   
1 26900U 01039A   20218.43270376 -.00000298  00000-0  00000-0 0  9995
2 26900   0.7324  96.3916 0002694  84.4624 239.2527  1.00272283 69233
EUTELSAT 12 WEST B      
1 26927U 01042A   20218.36509853 -.00000117  00000-0  00000-0 0  9995
2 26927   1.1831  93.2381 0007016  30.4530 309.5961  1.00271974 69039
USA 164 (MILSTAR-2 3)   
1 27168U 02001A   20218.22775132  .00000087  00000-0  00000+0 0  9993
2 27168   8.8149  31.7213 0002768 117.1778 266.2520  1.00273936 10171
ECHOSTAR 7              
1 27378U 02006A   20218.23055108 -.00000017  00000-0  00000+0 0  9990
2 27378   0.0144 288.8239 0002232 182.5119 167.1218  1.00271819 67585
INTELSAT 904 (IS-904)   
1 27380U 02007A   20218.36169633 -.00000230  00000-0  00000-0 0  9995
2 27380   1.5720  92.9273 0003324  49.1512 272.9717  1.00272097 30289
TDRS 9                  
1 27389U 02011A   20218.24910514 -.00000303  00000-0  00000-0 0  9999
2 27389   7.5896  66.9809 0023607 286.4411 348.1223  1.00278569 68968
JCSAT-2A                
1 27399U 02015A   20218.38394149 -.00000184  00000-0  00000+0 0  9995
2 27399   3.0167  84.9426 0008462  31.3354  58.3438  1.00319199 67143
ASTRA 3A                
1 27400U 02015B   20218.57737958 -.00000219  00000-0  00000-0 0  9998
2 27400   6.0139  63.2200 0001432  62.3132 310.1046  1.00274499 67255
NSS-7                   
1 27414U 02019A   20218.37076900 -.00000174  00000-0  00000+0 0  9997
2 27414   4.3423  76.4076 0002455  50.3979 301.0430  1.00272195 67084
DIRECTV 5 (TEMPO 1)     
1 27426U 02023A   20218.58001774 -.00000071  00000-0  00000-0 0  9992
2 27426   0.0143  81.6687 0003626  59.5983 271.9835  1.00271654 66859
INTELSAT 905 (IS-905)   
1 27438U 02027A   20218.36265593 -.00000201  00000-0  00000-0 0  9991
2 27438   1.3925  93.8309 0002790  40.8847 285.6973  1.00272026 29895
GALAXY 3C (G-3C)        
1 27445U 02030A   20216.31646466 -.00000169  00000-0  00000+0 0  9990
2 27445   0.0169  39.0333 0001662 356.4538 295.7317  1.00270774 66453
EUTELSAT 5 WEST A       
1 27460U 02035A   20218.36640707 -.00000058  00000-0  00000+0 0  9998
2 27460   0.6772  96.6813 0005187  40.4832 304.1168  1.00272088 66270
METEOSAT-8 (MSG-1)      
1 27509U 02040B   20218.23220035  .00000121  00000-0  00000+0 0  9992
2 27509   6.8076  53.8927 0001690  79.7819 305.5664  1.00268145 65774
INTELSAT 906 (IS-906)   
1 27513U 02041A   20218.34702083 -.00000001  00000-0  00000-0 0  9997
2 27513   0.3967  99.5136 0002909  42.9442   0.9435  1.00271634 65559
HISPASAT 30W-4          
1 27528U 02044A   20218.56430223  .00000102  00000-0  00000-0 0  9995
2 27528   1.1894  93.4564 0005138  20.7888 260.4645  1.00275705 21490
TDRS 10                 
1 27566U 02055A   20218.61868639  .00000075  00000-0  00000-0 0  9990
2 27566   6.9886  53.3897 0006524 313.2203 359.7048  1.00266320 64759
NSS-6                   
1 27603U 02057A   20218.61990000  .00000093  00000-0  00000-0 0  9992
2 27603   0.0037 335.2431 0005266 174.1715 218.8487  1.00271342 64565
NIMIQ 2                 
1 27632U 02062A   20218.06442384 -.00000169  00000-0  00000-0 0  9991
2 27632   4.4574  75.6698 0004432  52.3182 128.8507  0.99661729 22702
USA 167                 
1 27691U 03008A   20218.32347037  .00000040  00000-0  00000-0 0  9992
2 27691   6.7347  58.6088 0003743  18.0633 223.9614  1.00271729 11476
USA 169 (MILSTAR-2 4)   
1 27711U 03012A   20218.43026288 -.00000207  00000-0  00000-0 0  9990
2 27711   9.1225  44.5078 0002149 118.7418  98.3443  1.00275246 11474
GALAXY 12 (G-12)        
1 27715U 03013B   20218.56751292  .00000043  00000-0  00000-0 0  9996
2 27715   1.6083  92.2418 0002099  44.2058 253.4035  1.00271769 30661
ASIASAT 4               
1 27718U 03014A   20218.38243854  .00000138  00000-0  00000-0 0  9995
2 27718   0.0266 227.9429 0001798 275.1711 347.1286  1.00273911 23825
HELLAS-SAT 2            
1 27811U 03020A   20218.49145022 -.00000166  00000-0  00000-0 0  9998
2 27811   2.0267  91.7424 0002547  44.1173 260.3243  1.00271388 21365
THURAYA-2               
1 27825U 03026A   20218.13174281  .00000113  00000-0  00000+0 0  9999
2 27825   5.9649  33.0675 0004555 102.3776 270.1100  1.00271067 62865
OPTUS C1                
1 27831U 03028B   20218.51936072 -.00000166  00000-0  00000-0 0  9994
2 27831   1.5334  93.9092 0006634  36.2995 166.9824  1.00271771 31583
GALAXY 23 (G-23)        
1 27854U 03034A   20218.57229841 -.00000002  00000-0  00000-0 0  9990
2 27854   0.0422 254.1453 0002965 245.2878 260.1641  1.00271849 62266
USA 170                 
1 27875U 03040A   20218.35907927 -.00000289  00000-0  00000-0 0  9991
2 27875   5.9821  64.1093 0006809  66.5021 270.4441  1.00268197 11482
GALAXY 13 (HORIZONS 1)  
1 27954U 03044A   20218.47413663  .00000033  00000-0  00000+0 0  9990
2 27954   0.0228  85.3116 0001674 118.3086 154.5156  1.00271343 61678
YAMAL 202               
1 28089U 03053A   20218.61478565 -.00000095  00000-0  00000-0 0  9998
2 28089   0.9653  94.9842 0006808  24.5385 219.8886  1.00271839 61209
UFO 11 (USA 174)        
1 28117U 03057A   20218.09530536 -.00000111  00000-0  00000-0 0  9992
2 28117   6.1056  37.4787 0003329  30.8912 354.8180  1.00272136 60945
USA 176 (DSP 22)        
1 28158U 04004A   20218.47818807 -.00000233  00000-0  00000-0 0  9997
2 28158   9.2230  38.9710 0001462 120.9245  54.0596  1.00275401 11456
ABS-4 (MOBISAT-1)       
1 28184U 04007A   20218.34702083  .00000025  00000-0  00000-0 0  9991
2 28184   0.6455  96.4302 0005236  41.5143   2.3434  1.00268877 30865
EUTELSAT 7A             
1 28187U 04008A   20218.23019392  .00000137  00000-0  00000-0 0  9991
2 28187   0.4417  88.9750 0000976  55.4185 283.5965  1.00272483 59875
DIRECTV 7S              
1 28238U 04016A   20218.48895956 -.00000014  00000-0  00000-0 0  9997
2 28238   0.0213  91.9191 0003149  48.4076 231.1233  1.00270729 59587
AMC-11 (GE-11)          
1 28252U 04017A   20218.56557169  .00000054  00000-0  00000-0 0  9997
2 28252   0.0227 313.7789 0002812 176.0670 257.3205  1.00272262 59404
INTELSAT 10-02          
1 28358U 04022A   20218.36736667 -.00000027  00000-0  00000+0 0  9990
2 28358   0.0136 101.8430 0003083  34.5123 309.2550  1.00271574 59158
ANIK F2                 
1 28378U 04027A   20218.32862472 -.00000066  00000-0  00000+0 0  9990
2 28378   0.0067  40.1939 0000318 114.2382 167.1202  1.00273021 58875
AMC-15                  
1 28446U 04041A   20218.41332487 -.00000104  00000-0  00000+0 0  9993
2 28446   0.0468 283.1992 0002912 220.6470 214.2883  1.00271438 57874
AMC-16                  
1 28472U 04048A   20218.45469663 -.00000221  00000-0  00000-0 0  9991
2 28472   0.0570 281.1583 0002955 220.5734 251.3887  1.00271027 57241
NSS-10 (AMC-12)         
1 28526U 05003A   20218.36012609 -.00000267  00000-0  00000-0 0  9997
2 28526   1.1330  94.1638 0003166  42.6121 269.7453  1.00270210 31672
XTAR-EUR                
1 28542U 05005A   20218.04714477  .00000135  00000-0  00000+0 0  9996
2 28542   0.0166  78.1439 0002728  58.0321 223.8257  1.00270960 56708
XM-3 (RHYTHM)           
1 28626U 05008A   20218.45469698 -.00000221  00000-0  00000+0 0  9996
2 28626   0.0021 350.6908 0000191 126.7348 275.6107  1.00270726 56590
INMARSAT 4-F1           
1 28628U 05009A   20218.46021480 -.00000276  00000-0  00000-0 0  9994
2 28628   3.1991  27.5823 0003140 113.2487 122.8042  1.00271856 56192
APSTAR 6                
1 28638U 05012A   20218.60587108 -.00000100  00000-0  00000-0 0  9995
2 28638   1.7625  91.6578 0004198  30.1075 213.8439  1.00272761 80907
DIRECTV 8               
1 28659U 05019A   20218.58675226 -.00000131  00000-0  00000-0 0  9995
2 28659   0.0149  94.6042 0003201  36.0001 294.4471  1.00271920 55651
GALAXY 28 (G-28)        
1 28702U 05022A   20218.34983225 -.00000201  00000-0  00000-0 0  9991
2 28702   0.0227  85.4626 0001286 332.0750 293.7481  1.00269981 30632
EXPRESS-AM3             
1 28707U 05023A   20218.64669657 -.00000337  00000-0  00000-0 0  9990
2 28707   1.9505  90.4084 0002498   5.3414 194.6975  1.00268530 55366
THAICOM 4               
1 28786U 05028A   20218.57297635 -.00000378  00000-0  00000-0 0  9992
2 28786   0.0122  92.3889 0002899  44.7171 143.2213  1.00269988 30797
GALAXY 14 (G-14)        
1 28790U 05030A   20218.57035427  .00000021  00000-0  00000-0 0  9993
2 28790   0.0598 276.6502 0002722 220.9588 257.2770  1.00273672 54833
ANIK F1R                
1 28868U 05036A   20218.58197947 -.00000089  00000-0  00000-0 0  9997
2 28868   0.0099  42.1655 0002453  53.7003 320.9035  1.00271681 24977
GALAXY 15 (G-15)        
1 28884U 05041A   20218.56456389  .00000064  00000-0  00000-0 0  9999
2 28884   0.0491 267.1758 0001798 227.7385 249.8616  1.00271853 54249
SYRACUSE 3A             
1 28885U 05041B   20218.19910698  .00000112  00000-0  00000-0 0  9991
2 28885   0.0111  83.3724 0002732  46.6934 302.8170  1.00275724 54265
INMARSAT 4-F2           
1 28899U 05044A   20218.09321170 -.00000005  00000-0  00000-0 0  9991
2 28899   3.0510  30.3553 0003200 110.4452 270.7521  1.00271897 54040
